[{"OBJECT_NAME":"STARLINK-4378","OBJECT_ID":"2022-099M","EPOCH":"2026-03-09T21:57:07.425792","MEAN_MOTION":15.01253303,"ECCENTRICITY":8.015e-5,"INCLINATION":97.6016,"RA_OF_ASC_NODE":190.4295,"ARG_OF_PERICENTER":205.3589,"MEAN_ANOMALY":154.7596,"EPHEMERIS_TYPE":0,"CLASSIFICATION_TYPE":"U","NORAD_CAT_ID":53476,"ELEMENT_SET_NO":999,"REV_AT_EPOCH":19601,"BSTAR":-1.8950603e-5,"MEAN_MOTION_DOT":-3.02e-6,"MEAN_MOTION_DDOT":0},{"OBJECT_NAME":"COSMOS 252 DEB","OBJECT_ID":"1968-097ET","EPOCH":"2026-03-08T21:00:26.436672","MEAN_MOTION":13.95651289,"ECCENTRICITY":0.05801012,"INCLINATION":62.793,"RA_OF_ASC_NODE":17.3776,"ARG_OF_PERICENTER":65.663,"MEAN_ANOMALY":300.3848,"EPHEMERIS_TYPE":0,"CLASSIFICATION_TYPE":"U","NORAD_CAT_ID":19479,"ELEMENT_SET_NO":999,"REV_AT_EPOCH":87836,"BSTAR":0.0017136051,"MEAN_MOTION_DOT":9.921e-5,"MEAN_MOTION_DDOT":0}]
